{
  "norad_id": 28370,
  "name": "SAUDICOMSAT 2",
  "history": [
    {
      "epoch": "2026-03-28T22:31:13.018368Z",
      "apogee_km": 765.9119523423469,
      "perigee_km": 685.8765156538766,
      "latitude_deg": 5.935812247808502e-05,
      "longitude_deg": -66.25006329614718,
      "height_km": 760.1042625897725,
      "semi_major_axis_km": 7104.031233998111,
      "eccentricity": 0.0056331,
      "inclination_deg": 98.6682,
      "raan_deg": 97.9058,
      "arg_perigee_deg": 141.6562,
      "mean_anomaly_deg": 218.8657,
      "mean_motion_rev_day": 14.49924768
    }
  ]
}